start=new Date('2021-10-06T00:00:00.000Z').valueOf();
sats=[{"REF_FRAME":"TEME","MEAN_ANOMALY":"277.7902","SEMIMAJOR_AXIS":"6925.380","GP_ID":"186277569","PERIAPSIS":"545.710","APOAPSIS":"548.780","CENTER_NAME":"EARTH","TLE_LINE1":"1 47407U 21005BL  21277.89855541 -.00001000  00000-0 -48229-4 0  9996","PERIOD":"95.593","EPHEMERIS_TYPE":"0","NORAD_CAT_ID":"47407","TIME_SYSTEM":"UTC","OBJECT_TYPE":"PAYLOAD","MEAN_MOTION":"15.06389710","RA_OF_ASC_NODE":"89.6787","CLASSIFICATION_TYPE":"U","ELEMENT_SET_NO":"999","DECAY_DATE":null,"MEAN_MOTION_DDOT":"0.0000000000000","OBJECT_ID":"2021-005BL","INCLINATION":"53.0562","OBJECT_NAME":"STARLINK-2134","ARG_OF_PERICENTER":"82.3339","SITE":"AFETR","REV_AT_EPOCH":"3977","RCS_SIZE":"LARGE","MEAN_ELEMENT_THEORY":"SGP4","TLE_LINE2":"2 47407  53.0562  89.6787 0002217  82.3339 277.7902 15.06389710 39770","LAUNCH_DATE":"2021-01-20","FILE":"3145988","BSTAR":"-0.00004822900000","EPOCH":"2021-10-04T21:33:55.187424","COUNTRY_CODE":"US","ECCENTRICITY":"0.00022170","MEAN_MOTION_DOT":"-0.00001000"},{"PERIOD":"95.592","EPHEMERIS_TYPE":"0","PERIAPSIS":"545.897","TLE_LINE1":"1 47408U 21005BM  21278.46617687  .00001688  00000-0  13221-3 0  9991","APOAPSIS":"548.536","CENTER_NAME":"EARTH","MEAN_ANOMALY":"271.1684","REF_FRAME":"TEME","GP_ID":"186277320","SEMIMAJOR_AXIS":"6925.351","MEAN_MOTION_DDOT":"0.0000000000000","DECAY_DATE":null,"ELEMENT_SET_NO":"999","MEAN_MOTION":"15.06399094","CLASSIFICATION_TYPE":"U","RA_OF_ASC_NODE":"87.1178","TIME_SYSTEM":"UTC","NORAD_CAT_ID":"47408","OBJECT_TYPE":"PAYLOAD","SITE":"AFETR","ARG_OF_PERICENTER":"88.9523","OBJECT_NAME":"STARLINK-2135","INCLINATION":"53.0553","OBJECT_ID":"2021-005BM","COUNTRY_CODE":"US","EPOCH":"2021-10-05T11:11:17.681568","MEAN_MOTION_DOT":"0.00001688","ECCENTRICITY":"0.00019050","BSTAR":"0.00013221000000","LAUNCH_DATE":"2021-01-20","TLE_LINE2":"2 47408  53.0553  87.1178 0001905  88.9523 271.1684 15.06399094 39869","FILE":"3145988","REV_AT_EPOCH":"3986","RCS_SIZE":"LARGE","MEAN_ELEMENT_THEORY":"SGP4"},{"ELEMENT_SET_NO":"999","DECAY_DATE":null,"MEAN_MOTION_DDOT":"0.0000000000000","OBJECT_TYPE":"PAYLOAD","NORAD_CAT_ID":"47413","TIME_SYSTEM":"UTC","CLASSIFICATION_TYPE":"U","RA_OF_ASC_NODE":"338.4103","MEAN_MOTION":"15.14315971","EPHEMERIS_TYPE":"0","PERIOD":"95.092","GP_ID":"186276068","SEMIMAJOR_AXIS":"6901.193","REF_FRAME":"TEME","MEAN_ANOMALY":"215.9477","APOAPSIS":"526.373","CENTER_NAME":"EARTH","TLE_LINE1":"1 47413U 21006A   21278.44423115  .00000790  00000-0  46698-4 0  9995","PERIAPSIS":"519.743","BSTAR":"0.00004669800000","ECCENTRICITY":"0.00048040","MEAN_MOTION_DOT":"0.00000790","EPOCH":"2021-10-05T10:39:41.571360","COUNTRY_CODE":"US","MEAN_ELEMENT_THEORY":"SGP4","REV_AT_EPOCH":"3969","RCS_SIZE":"LARGE","FILE":"3145988","TLE_LINE2":"2 47413  97.4858 338.4103 0004804 144.2078 215.9477 15.14315971 39695","LAUNCH_DATE":"2021-01-24","OBJECT_NAME":"STARLINK-2199","ARG_OF_PERICENTER":"144.2078","SITE":"AFETR","OBJECT_ID":"2021-006A","INCLINATION":"97.4858"},{"BSTAR":"0.00007771600000","MEAN_MOTION_DOT":"0.00001358","ECCENTRICITY":"0.00044580","COUNTRY_CODE":"US","EPOCH":"2021-10-05T18:36:06.679584","MEAN_ELEMENT_THEORY":"SGP4","REV_AT_EPOCH":"3877","RCS_SIZE":"LARGE","FILE":"3146344","LAUNCH_DATE":"2021-01-24","TLE_LINE2":"2 47414  97.4855 338.7253 0004458 144.3276 215.8255 15.14321810 38778","OBJECT_NAME":"STARLINK-2200","SITE":"AFETR","ARG_OF_PERICENTER":"144.3276","INCLINATION":"97.4855","OBJECT_ID":"2021-006B","DECAY_DATE":null,"ELEMENT_SET_NO":"999","MEAN_MOTION_DDOT":"0.0000000000000","OBJECT_TYPE":"PAYLOAD","TIME_SYSTEM":"UTC","NORAD_CAT_ID":"47414","RA_OF_ASC_NODE":"338.7253","CLASSIFICATION_TYPE":"U","MEAN_MOTION":"15.14321810","EPHEMERIS_TYPE":"0","PERIOD":"95.092","GP_ID":"186305430","SEMIMAJOR_AXIS":"6901.175","MEAN_ANOMALY":"215.8255","REF_FRAME":"TEME","TLE_LINE1":"1 47414U 21006B   21278.77507731  .00001358  00000-0  77716-4 0  9995","CENTER_NAME":"EARTH","APOAPSIS":"526.117","PERIAPSIS":"519.964"},{"BSTAR":"0.00014327000000","EPOCH":"2021-10-05T18:43:30.354816","COUNTRY_CODE":"US","ECCENTRICITY":"0.00028280","MEAN_MOTION_DOT":"0.00001784","RCS_SIZE":"LARGE","REV_AT_EPOCH":"3858","MEAN_ELEMENT_THEORY":"SGP4","TLE_LINE2":"2 47415  97.4920 335.7639 0002828 174.0706 186.0553 15.01255518 38580","LAUNCH_DATE":"2021-01-24","FILE":"3146344","OBJECT_NAME":"STARLINK-2201","ARG_OF_PERICENTER":"174.0706","SITE":"AFETR","OBJECT_ID":"2021-006C","INCLINATION":"97.4920","DECAY_DATE":null,"ELEMENT_SET_NO":"999","MEAN_MOTION_DDOT":"0.0000000000000","NORAD_CAT_ID":"47415","TIME_SYSTEM":"UTC","OBJECT_TYPE":"PAYLOAD","MEAN_MOTION":"15.01255518","CLASSIFICATION_TYPE":"U","RA_OF_ASC_NODE":"335.7639","PERIOD":"95.920","EPHEMERIS_TYPE":"0","REF_FRAME":"TEME","MEAN_ANOMALY":"186.0553","SEMIMAJOR_AXIS":"6941.161","GP_ID":"186306181","PERIAPSIS":"561.063","CENTER_NAME":"EARTH","APOAPSIS":"564.989","TLE_LINE1":"1 47415U 21006C   21278.78021244  .00001784  00000-0  14327-3 0  9998"},{"MEAN_MOTION":"15.14317474","CLASSIFICATION_TYPE":"U","RA_OF_ASC_NODE":"338.3860","NORAD_CAT_ID":"47416","TIME_SYSTEM":"UTC","OBJECT_TYPE":"PAYLOAD","MEAN_MOTION_DDOT":"0.0000000000000","DECAY_DATE":null,"ELEMENT_SET_NO":"999","PERIAPSIS":"519.641","APOAPSIS":"526.465","CENTER_NAME":"EARTH","TLE_LINE1":"1 47416U 21006D   21278.44742947 -.00000899  00000-0 -45573-4 0  9998","REF_FRAME":"TEME","MEAN_ANOMALY":"216.6807","SEMIMAJOR_AXIS":"6901.188","GP_ID":"186277820","PERIOD":"95.092","EPHEMERIS_TYPE":"0","TLE_LINE2":"2 47416  97.4847 338.3860 0004944 143.4763 216.6807 15.14317474 38720","LAUNCH_DATE":"2021-01-24","FILE":"3145988","REV_AT_EPOCH":"3872","RCS_SIZE":"LARGE","MEAN_ELEMENT_THEORY":"SGP4","EPOCH":"2021-10-05T10:44:17.906208","COUNTRY_CODE":"US","ECCENTRICITY":"0.00049440","MEAN_MOTION_DOT":"-0.00000899","BSTAR":"-0.00004557300000","OBJECT_ID":"2021-006D","INCLINATION":"97.4847","ARG_OF_PERICENTER":"143.4763","SITE":"AFETR","OBJECT_NAME":"STARLINK-2202"},{"REV_AT_EPOCH":"3872","RCS_SIZE":"LARGE","MEAN_ELEMENT_THEORY":"SGP4","TLE_LINE2":"2 47417  97.4853 338.3980 0004288 139.8284 220.3265 15.14330177 38724","LAUNCH_DATE":"2021-01-24","FILE":"3145988","BSTAR":"0.00009814300000","COUNTRY_CODE":"US","EPOCH":"2021-10-05T10:41:38.800608","MEAN_MOTION_DOT":"0.00001733","ECCENTRICITY":"0.00042880","INCLINATION":"97.4853","OBJECT_ID":"2021-006E","OBJECT_NAME":"STARLINK-2203","SITE":"AFETR","ARG_OF_PERICENTER":"139.8284","TIME_SYSTEM":"UTC","NORAD_CAT_ID":"47417","OBJECT_TYPE":"PAYLOAD","MEAN_MOTION":"15.14330177","RA_OF_ASC_NODE":"338.3980","CLASSIFICATION_TYPE":"U","DECAY_DATE":null,"ELEMENT_SET_NO":"999","MEAN_MOTION_DDOT":"0.0000000000000","MEAN_ANOMALY":"220.3265","REF_FRAME":"TEME","SEMIMAJOR_AXIS":"6901.150","GP_ID":"186276568","PERIAPSIS":"520.056","TLE_LINE1":"1 47417U 21006E   21278.44558797  .00001733  00000-0  98143-4 0  9994","APOAPSIS":"525.974","CENTER_NAME":"EARTH","PERIOD":"95.092","EPHEMERIS_TYPE":"0"},{"ELEMENT_SET_NO":"999","DECAY_DATE":null,"MEAN_MOTION_DDOT":"0.0000000000000","OBJECT_TYPE":"PAYLOAD","NORAD_CAT_ID":"47418","TIME_SYSTEM":"UTC","CLASSIFICATION_TYPE":"U","RA_OF_ASC_NODE":"335.8221","MEAN_MOTION":"15.01249209","EPHEMERIS_TYPE":"0","PERIOD":"95.920","SEMIMAJOR_AXIS":"6941.180","GP_ID":"186305931","REF_FRAME":"TEME","MEAN_ANOMALY":"177.2207","APOAPSIS":"565.024","CENTER_NAME":"EARTH","TLE_LINE1":"1 47418U 21006F   21278.84732203  .00001511  00000-0  12208-3 0  9996","PERIAPSIS":"561.066","BSTAR":"0.00012208000000","ECCENTRICITY":"0.00028510","MEAN_MOTION_DOT":"0.00001511","EPOCH":"2021-10-05T20:20:08.623392","COUNTRY_CODE":"US","MEAN_ELEMENT_THEORY":"SGP4","RCS_SIZE":"LARGE","REV_AT_EPOCH":"3859","FILE":"3146344","LAUNCH_DATE":"2021-01-24","TLE_LINE2":"2 47418  97.4906 335.8221 0002851 182.9002 177.2207 15.01249209 38597","OBJECT_NAME":"STARLINK-2204","ARG_OF_PERICENTER":"182.9002","SITE":"AFETR","OBJECT_ID":"2021-006F","INCLINATION":"97.4906"},{"OBJECT_ID":"2021-006G","INCLINATION":"97.4856","OBJECT_NAME":"STARLINK-2205","ARG_OF_PERICENTER":"148.6653","SITE":"AFETR","MEAN_ELEMENT_THEORY":"SGP4","RCS_SIZE":"LARGE","REV_AT_EPOCH":"3872","FILE":"3145988","LAUNCH_DATE":"2021-01-24","TLE_LINE2":"2 47419  97.4856 338.3988 0004538 148.6653 211.4849 15.14330805 38720","BSTAR":"-0.00001678100000","ECCENTRICITY":"0.00045380","MEAN_MOTION_DOT":"-0.00000372","EPOCH":"2021-10-05T10:42:18.622368","COUNTRY_CODE":"US","GP_ID":"186277570","SEMIMAJOR_AXIS":"6901.148","REF_FRAME":"TEME","MEAN_ANOMALY":"211.4849","APOAPSIS":"526.145","CENTER_NAME":"EARTH","TLE_LINE1":"1 47419U 21006G   21278.44604887 -.00000372  00000-0 -16781-4 0  9996","PERIAPSIS":"519.881","EPHEMERIS_TYPE":"0","PERIOD":"95.092","OBJECT_TYPE":"PAYLOAD","NORAD_CAT_ID":"47419","TIME_SYSTEM":"UTC","RA_OF_ASC_NODE":"338.3988","CLASSIFICATION_TYPE":"U","MEAN_MOTION":"15.14330805","ELEMENT_SET_NO":"999","DECAY_DATE":null,"MEAN_MOTION_DDOT":"0.0000000000000"},{"DECAY_DATE":null,"ELEMENT_SET_NO":"999","MEAN_MOTION_DDOT":"0.0000000000000","OBJECT_TYPE":"PAYLOAD","TIME_SYSTEM":"UTC","NORAD_CAT_ID":"47420","RA_OF_ASC_NODE":"338.3951","CLASSIFICATION_TYPE":"U","MEAN_MOTION":"15.14314125","EPHEMERIS_TYPE":"0","PERIOD":"95.093","GP_ID":"186277321","SEMIMAJOR_AXIS":"6901.199","MEAN_ANOMALY":"214.0444","REF_FRAME":"TEME","TLE_LINE1":"1 47420U 21006H   21278.44652696  .00000195  00000-0  14196-4 0  9998","APOAPSIS":"526.596","CENTER_NAME":"EARTH","PERIAPSIS":"519.532","BSTAR":"0.00001419600000","MEAN_MOTION_DOT":"0.00000195","ECCENTRICITY":"0.00051180","COUNTRY_CODE":"US","EPOCH":"2021-10-05T10:42:59.929344","MEAN_ELEMENT_THEORY":"SGP4","REV_AT_EPOCH":"3872","RCS_SIZE":"LARGE","FILE":"3145988","LAUNCH_DATE":"2021-01-24","TLE_LINE2":"2 47420  97.4854 338.3951 0005118 146.1115 214.0444 15.14314125 38728","OBJECT_NAME":"STARLINK-2206","SITE":"AFETR","ARG_OF_PERICENTER":"146.1115","INCLINATION":"97.4854","OBJECT_ID":"2021-006H"}];
